[{"OBJECT_NAME":"JILIN-1 GAOFEN 2A","OBJECT_ID":"2019-075A","EPOCH":"2026-03-09T21:52:13.646784","MEAN_MOTION":15.36418896,"ECCENTRICITY":0.00077248,"INCLINATION":97.5004,"RA_OF_ASC_NODE":150.5825,"ARG_OF_PERICENTER":84.5784,"MEAN_ANOMALY":275.6341,"EPHEMERIS_TYPE":0,"CLASSIFICATION_TYPE":"U","NORAD_CAT_ID":44777,"ELEMENT_SET_NO":999,"REV_AT_EPOCH":34962,"BSTAR":0.00053427747,"MEAN_MOTION_DOT":0.00018939,"MEAN_MOTION_DDOT":0},{"OBJECT_NAME":"STARLINK-30164","OBJECT_ID":"2023-113F","EPOCH":"2026-03-09T22:00:01.999584","MEAN_MOTION":15.24466179,"ECCENTRICITY":0.00018202,"INCLINATION":43.0036,"RA_OF_ASC_NODE":14.5924,"ARG_OF_PERICENTER":267.0791,"MEAN_ANOMALY":38.5191,"EPHEMERIS_TYPE":0,"CLASSIFICATION_TYPE":"U","NORAD_CAT_ID":57500,"ELEMENT_SET_NO":999,"REV_AT_EPOCH":578,"BSTAR":0.029239986,"MEAN_MOTION_DOT":0.00792027,"MEAN_MOTION_DDOT":0}]
